start=new Date('2022-01-17T00:00:00.000Z').valueOf();
sats=[{"MEAN_MOTION":"15.06421113","PERIOD":"95.591","SEMIMAJOR_AXIS":"6925.284","ECCENTRICITY":"0.00020910","BSTAR":"0.00020149000000","OBJECT_ID":"2021-038Z","CLASSIFICATION_TYPE":"U","OBJECT_NAME":"STARLINK-2610","GP_ID":"193991766","CENTER_NAME":"EARTH","MEAN_MOTION_DDOT":"0.0000000000000","MEAN_MOTION_DOT":"0.00002722","EPOCH":"2022-01-16T13:39:43.310592","NORAD_CAT_ID":"48376","REV_AT_EPOCH":"3969","RCS_SIZE":"LARGE","TLE_LINE2":"2 48376  53.0555 304.2926 0002091  63.0365 297.0837 15.06421113 39691","APOAPSIS":"548.597","DECAY_DATE":null,"MEAN_ELEMENT_THEORY":"SGP4","RA_OF_ASC_NODE":"304.2926","REF_FRAME":"TEME","LAUNCH_DATE":"2021-05-04","COUNTRY_CODE":"US","MEAN_ANOMALY":"297.0837","OBJECT_TYPE":"PAYLOAD","FILE":"3274859","EPHEMERIS_TYPE":"0","SITE":"AFETR","TLE_LINE1":"1 48376U 21038Z   22016.56925128  .00002722  00000-0  20149-3 0  9993","INCLINATION":"53.0555","ARG_OF_PERICENTER":"63.0365","PERIAPSIS":"545.701","TIME_SYSTEM":"UTC","ELEMENT_SET_NO":"999"},{"TLE_LINE1":"1 48377U 21038AA  22016.49921613  .00003313  00000-0  24112-3 0  9992","INCLINATION":"53.0584","OBJECT_TYPE":"PAYLOAD","MEAN_ANOMALY":"292.5269","COUNTRY_CODE":"US","FILE":"3274671","EPHEMERIS_TYPE":"0","SITE":"AFETR","TIME_SYSTEM":"UTC","PERIAPSIS":"545.727","ELEMENT_SET_NO":"999","ARG_OF_PERICENTER":"67.5940","MEAN_MOTION_DDOT":"0.0000000000000","MEAN_MOTION_DOT":"0.00003313","EPOCH":"2022-01-16T11:58:52.273632","NORAD_CAT_ID":"48377","REV_AT_EPOCH":"3909","OBJECT_ID":"2021-038AA","BSTAR":"0.00024112000000","ECCENTRICITY":"0.00020740","SEMIMAJOR_AXIS":"6925.298","PERIOD":"95.591","MEAN_MOTION":"15.06416521","CLASSIFICATION_TYPE":"U","GP_ID":"193985391","OBJECT_NAME":"STARLINK-2499","CENTER_NAME":"EARTH","RA_OF_ASC_NODE":"304.5994","MEAN_ELEMENT_THEORY":"SGP4","REF_FRAME":"TEME","LAUNCH_DATE":"2021-05-04","RCS_SIZE":"LARGE","APOAPSIS":"548.599","TLE_LINE2":"2 48377  53.0584 304.5994 0002074  67.5940 292.5269 15.06416521 39091","DECAY_DATE":null},{"CENTER_NAME":"EARTH","OBJECT_NAME":"STARLINK-2526","GP_ID":"193986139","CLASSIFICATION_TYPE":"U","SEMIMAJOR_AXIS":"6925.270","PERIOD":"95.591","MEAN_MOTION":"15.06425613","BSTAR":"0.00045124000000","ECCENTRICITY":"0.00019610","OBJECT_ID":"2021-038AB","REV_AT_EPOCH":"3909","NORAD_CAT_ID":"48378","EPOCH":"2022-01-16T11:53:33.904320","MEAN_MOTION_DOT":"0.00006451","MEAN_MOTION_DDOT":"0.0000000000000","DECAY_DATE":null,"TLE_LINE2":"2 48378  53.0545 304.6222 0001961  69.6346 290.4854 15.06425613 39090","APOAPSIS":"548.493","RCS_SIZE":"LARGE","LAUNCH_DATE":"2021-05-04","REF_FRAME":"TEME","MEAN_ELEMENT_THEORY":"SGP4","RA_OF_ASC_NODE":"304.6222","EPHEMERIS_TYPE":"0","FILE":"3274671","SITE":"AFETR","COUNTRY_CODE":"US","MEAN_ANOMALY":"290.4854","OBJECT_TYPE":"PAYLOAD","INCLINATION":"53.0545","TLE_LINE1":"1 48378U 21038AB  22016.49553130  .00006451  00000-0  45124-3 0  9990","ARG_OF_PERICENTER":"69.6346","ELEMENT_SET_NO":"999","TIME_SYSTEM":"UTC","PERIAPSIS":"545.777"},{"MEAN_MOTION_DOT":"0.00004431","MEAN_MOTION_DDOT":"0.0000000000000","EPOCH":"2022-01-16T11:48:15.585984","REV_AT_EPOCH":"3909","NORAD_CAT_ID":"48379","SEMIMAJOR_AXIS":"6925.289","PERIOD":"95.591","MEAN_MOTION":"15.06419477","BSTAR":"0.00031605000000","ECCENTRICITY":"0.00020310","OBJECT_ID":"2021-038AC","CLASSIFICATION_TYPE":"U","OBJECT_NAME":"STARLINK-2612","GP_ID":"193984390","CENTER_NAME":"EARTH","MEAN_ELEMENT_THEORY":"SGP4","RA_OF_ASC_NODE":"304.6342","REF_FRAME":"TEME","LAUNCH_DATE":"2021-05-04","RCS_SIZE":"MEDIUM","TLE_LINE2":"2 48379  53.0560 304.6342 0002031  72.2329 287.8881 15.06419477 39092","APOAPSIS":"548.560","DECAY_DATE":null,"TLE_LINE1":"1 48379U 21038AC  22016.49184706  .00004431  00000-0  31605-3 0  9995","INCLINATION":"53.0560","COUNTRY_CODE":"US","MEAN_ANOMALY":"287.8881","OBJECT_TYPE":"PAYLOAD","FILE":"3274671","EPHEMERIS_TYPE":"0","SITE":"AFETR","TIME_SYSTEM":"UTC","PERIAPSIS":"545.747","ELEMENT_SET_NO":"999","ARG_OF_PERICENTER":"72.2329"},{"MEAN_ELEMENT_THEORY":"SGP4","RA_OF_ASC_NODE":"304.5148","LAUNCH_DATE":"2021-05-04","REF_FRAME":"TEME","RCS_SIZE":"LARGE","DECAY_DATE":null,"APOAPSIS":"548.345","TLE_LINE2":"2 48380  53.0559 304.5148 0001752  63.5465 296.5704 15.06426726 39094","EPOCH":"2022-01-16T12:24:03.191904","MEAN_MOTION_DOT":"0.00008605","MEAN_MOTION_DDOT":"0.0000000000000","REV_AT_EPOCH":"3909","NORAD_CAT_ID":"48380","CLASSIFICATION_TYPE":"U","PERIOD":"95.590","SEMIMAJOR_AXIS":"6925.267","MEAN_MOTION":"15.06426726","BSTAR":"0.00059546000000","ECCENTRICITY":"0.00017520","OBJECT_ID":"2021-038AD","CENTER_NAME":"EARTH","OBJECT_NAME":"STARLINK-2614","GP_ID":"193984640","ELEMENT_SET_NO":"999","PERIAPSIS":"545.918","TIME_SYSTEM":"UTC","ARG_OF_PERICENTER":"63.5465","INCLINATION":"53.0559","TLE_LINE1":"1 48380U 21038AD  22016.51670361  .00008605  00000-0  59546-3 0  9998","COUNTRY_CODE":"US","OBJECT_TYPE":"PAYLOAD","MEAN_ANOMALY":"296.5704","SITE":"AFETR","FILE":"3274671","EPHEMERIS_TYPE":"0"},{"MEAN_ELEMENT_THEORY":"SGP4","RA_OF_ASC_NODE":"303.1631","REF_FRAME":"TEME","LAUNCH_DATE":"2021-05-04","RCS_SIZE":"LARGE","TLE_LINE2":"2 48381  53.0540 303.1631 0002053  59.7392 300.3800 15.06410445 39731","APOAPSIS":"548.603","DECAY_DATE":null,"MEAN_MOTION_DOT":"0.00001648","MEAN_MOTION_DDOT":"0.0000000000000","EPOCH":"2022-01-16T19:40:38.975520","NORAD_CAT_ID":"48381","REV_AT_EPOCH":"3973","SEMIMAJOR_AXIS":"6925.317","PERIOD":"95.591","MEAN_MOTION":"15.06410445","BSTAR":"0.00012949000000","ECCENTRICITY":"0.00020530","OBJECT_ID":"2021-038AE","CLASSIFICATION_TYPE":"U","OBJECT_NAME":"STARLINK-2630","GP_ID":"193991844","CENTER_NAME":"EARTH","TIME_SYSTEM":"UTC","PERIAPSIS":"545.760","ELEMENT_SET_NO":"999","ARG_OF_PERICENTER":"59.7392","TLE_LINE1":"1 48381U 21038AE  22016.81989555  .00001648  00000-0  12949-3 0  9996","INCLINATION":"53.0540","COUNTRY_CODE":"US","MEAN_ANOMALY":"300.3800","OBJECT_TYPE":"PAYLOAD","FILE":"3274864","SITE":"AFETR","EPHEMERIS_TYPE":"0"},{"ELEMENT_SET_NO":"999","TIME_SYSTEM":"UTC","PERIAPSIS":"545.381","ARG_OF_PERICENTER":"74.0524","INCLINATION":"53.0575","TLE_LINE1":"1 48382U 21038AF  22016.81620629  .00003951  00000-0  28384-3 0  9990","SITE":"AFETR","FILE":"3274880","EPHEMERIS_TYPE":"0","COUNTRY_CODE":"US","MEAN_ANOMALY":"286.0746","OBJECT_TYPE":"PAYLOAD","LAUNCH_DATE":"2021-05-04","REF_FRAME":"TEME","MEAN_ELEMENT_THEORY":"SGP4","RA_OF_ASC_NODE":"303.1758","DECAY_DATE":null,"APOAPSIS":"548.920","TLE_LINE2":"2 48382  53.0575 303.1758 0002555  74.0524 286.0746 15.06420632 39732","RCS_SIZE":"LARGE","REV_AT_EPOCH":"3973","NORAD_CAT_ID":"48382","EPOCH":"2022-01-16T19:35:20.223456","MEAN_MOTION_DDOT":"0.0000000000000","MEAN_MOTION_DOT":"0.00003951","CENTER_NAME":"EARTH","OBJECT_NAME":"STARLINK-2585","GP_ID":"193992426","CLASSIFICATION_TYPE":"U","PERIOD":"95.591","MEAN_MOTION":"15.06420632","SEMIMAJOR_AXIS":"6925.285","ECCENTRICITY":"0.00025550","BSTAR":"0.00028384000000","OBJECT_ID":"2021-038AF"},{"CENTER_NAME":"EARTH","GP_ID":"193992330","OBJECT_NAME":"STARLINK-2599","CLASSIFICATION_TYPE":"U","ECCENTRICITY":"0.00020710","BSTAR":"0.00015952000000","OBJECT_ID":"2021-038AG","MEAN_MOTION":"15.06417496","PERIOD":"95.591","SEMIMAJOR_AXIS":"6925.295","REV_AT_EPOCH":"3972","NORAD_CAT_ID":"48383","EPOCH":"2022-01-16T19:30:01.865376","MEAN_MOTION_DDOT":"0.0000000000000","MEAN_MOTION_DOT":"0.00002096","DECAY_DATE":null,"TLE_LINE2":"2 48383  53.0549 303.1760 0002071  66.6745 293.4462 15.06417496 39722","APOAPSIS":"548.594","RCS_SIZE":"LARGE","LAUNCH_DATE":"2021-05-04","REF_FRAME":"TEME","RA_OF_ASC_NODE":"303.1760","MEAN_ELEMENT_THEORY":"SGP4","EPHEMERIS_TYPE":"0","FILE":"3274883","SITE":"AFETR","OBJECT_TYPE":"PAYLOAD","MEAN_ANOMALY":"293.4462","COUNTRY_CODE":"US","INCLINATION":"53.0549","TLE_LINE1":"1 48383U 21038AG  22016.81252159  .00002096  00000-0  15952-3 0  9996","ARG_OF_PERICENTER":"66.6745","ELEMENT_SET_NO":"999","TIME_SYSTEM":"UTC","PERIAPSIS":"545.726"},{"TIME_SYSTEM":"UTC","PERIAPSIS":"546.007","ELEMENT_SET_NO":"999","ARG_OF_PERICENTER":"59.7184","TLE_LINE1":"1 48384U 21038AH  22016.94153221 -.00001966  00000-0 -11311-3 0  9993","INCLINATION":"53.0555","FILE":"3275043","SITE":"AFETR","EPHEMERIS_TYPE":"0","COUNTRY_CODE":"US","MEAN_ANOMALY":"300.3975","OBJECT_TYPE":"PAYLOAD","REF_FRAME":"TEME","LAUNCH_DATE":"2021-05-04","MEAN_ELEMENT_THEORY":"SGP4","RA_OF_ASC_NODE":"302.5989","APOAPSIS":"548.392","TLE_LINE2":"2 48384  53.0555 302.5989 0001722  59.7184 300.3975 15.06404503 39742","DECAY_DATE":null,"RCS_SIZE":"LARGE","NORAD_CAT_ID":"48384","REV_AT_EPOCH":"3974","MEAN_MOTION_DOT":"-0.00001966","MEAN_MOTION_DDOT":"0.0000000000000","EPOCH":"2022-01-16T22:35:48.382944","OBJECT_NAME":"STARLINK-2601","GP_ID":"193995941","CENTER_NAME":"EARTH","PERIOD":"95.592","MEAN_MOTION":"15.06404503","SEMIMAJOR_AXIS":"6925.335","ECCENTRICITY":"0.00017220","BSTAR":"-0.00011311000000","OBJECT_ID":"2021-038AH","CLASSIFICATION_TYPE":"U"},{"ARG_OF_PERICENTER":"65.7707","ELEMENT_SET_NO":"999","PERIAPSIS":"545.827","TIME_SYSTEM":"UTC","OBJECT_TYPE":"PAYLOAD","MEAN_ANOMALY":"294.3483","COUNTRY_CODE":"US","FILE":"3274671","EPHEMERIS_TYPE":"0","SITE":"AFETR","INCLINATION":"53.0559","TLE_LINE1":"1 48385U 21038AJ  22016.20802914  .00003243  00000-0  23639-3 0  9997","RCS_SIZE":"LARGE","DECAY_DATE":null,"APOAPSIS":"548.483","TLE_LINE2":"2 48385  53.0559 305.8918 0001918  65.7707 294.3483 15.06419153 40273","RA_OF_ASC_NODE":"305.8918","MEAN_ELEMENT_THEORY":"SGP4","LAUNCH_DATE":"2021-05-04","REF_FRAME":"TEME","CLASSIFICATION_TYPE":"U","OBJECT_ID":"2021-038AJ","BSTAR":"0.00023639000000","ECCENTRICITY":"0.00019180","MEAN_MOTION":"15.06419153","PERIOD":"95.591","SEMIMAJOR_AXIS":"6925.290","CENTER_NAME":"EARTH","GP_ID":"193985392","OBJECT_NAME":"STARLINK-2598","EPOCH":"2022-01-16T04:59:33.717696","MEAN_MOTION_DOT":"0.00003243","MEAN_MOTION_DDOT":"0.0000000000000","NORAD_CAT_ID":"48385","REV_AT_EPOCH":"4027"}];
